satname,norad_id,inclination_deg,eccentricity,mean_motion_rev_per_day,perigee_km,apogee_km,l1,l2
STARLINK-1554,46055,53.1601,0.0001013,15.31704988,470.03133656415866,471.418916030947,1 46055U 20055AE  26147.86579317 -.00000259  00000+0  34241-5 0  9993,2 46055  53.1601 105.7697 0001013 115.2802 244.8305 15.31704988321207
STARLINK-1564,46058,53.1584,0.0001109,15.30201611,474.450223056876,475.9702954789818,1 46058U 20055AH  26147.90977827  .00008377  00000+0  29463-3 0  9995,2 46058  53.1584 106.3980 0001109  96.9679 263.1448 15.30201611321199
STARLINK-1570,46059,53.1584,0.0001212,15.31699543,469.91127346227404,471.57144157613675,1 46059U 20055AJ  26147.24124447  .00001377  00000+0  56136-4 0  9996,2 46059  53.1584 108.5628 0001212  87.2858 272.8282 15.31699543321065
STARLINK-1572,46060,53.1598,0.0001451,15.30169533,474.31160531391015,476.3004744840882,1 46060U 20055AK  26147.30296512  .00006048  00000+0  21636-3 0  9994,2 46060  53.1598 108.9615 0001451  92.1627 267.9540 15.30169533321079
STARLINK-1573,46061,53.1603,0.0001229,15.31709024,469.87137160657403,471.5548189599958,1 46061U 20055AL  26147.87975882  .00000513  00000+0  28305-4 0  9993,2 46061  53.1603 105.5566 0001229  88.5977 271.5165 15.31709024321200
STARLINK-1577,46063,53.1592,0.0001155,15.31712008,469.91315907771605,471.49524139497044,1 46063U 20055AN  26147.90772153  .00001055  00000+0  45753-4 0  9993,2 46063  53.1592 105.4205 0001155 100.0870 260.0261 15.31712008321204
STARLINK-1583,46064,53.1592,0.0001219,15.30200357,474.3785799945572,476.04942696920534,1 46064U 20055AP  26147.92023114  .00000948  00000+0  44137-4 0  9997,2 46064  53.1592 105.8465 0001219  98.7325 261.3814 15.30200357321190
STARLINK-1536,46070,53.1603,0.0001295,15.31707121,469.831841155481,471.6056947993866,1 46070U 20055AV  26147.14005812  .00002637  00000+0  96677-4 0  9996,2 46070  53.1603  96.8837 0001295  92.0413 268.0737 15.31707121321258
STARLINK-1542,46073,53.1594,9.59e-05,15.31713785,470.0420998030304,471.355706529258,1 46073U 20055AY  26147.88217829  .00002614  00000+0  95940-4 0  9990,2 46073  53.1594  96.3928 0000959  79.9518 280.1591 15.31713785321315
STARLINK-1549,46074,53.0502,0.0004162,15.28287278,478.0773235283132,483.78681262057944,1 46074U 20055AZ  26147.23289814  .00045874  00000+0  16448-2 0  9992,2 46074  53.0502  96.4809 0004162  70.0681 290.0766 15.28287278321241
STARLINK-1551,46075,53.16,0.000144,15.30203487,474.2177766868954,476.191539084366,1 46075U 20055BA  26147.24758478  .00007352  00000+0  26009-3 0  9995,2 46075  53.1600  96.1697 0001440  78.0356 282.0806 15.30203487321268
STARLINK-1552,46076,53.1615,0.0001235,15.31708326,469.86934272159215,471.56100920905556,1 46076U 20055BB  26147.57377609  .00002354  00000+0  87580-4 0  9994,2 46076  53.1615  94.3827 0001235  87.9280 272.1863 15.31708326321308
STARLINK-1559,46077,53.0243,0.0002753,15.37055354,452.9412189781524,456.7034463867276,1 46077U 20055BC  26147.94015318  .00052650  00000+0  14315-2 0  9990,2 46077  53.0243  62.7988 0002753  71.5120 288.6181 15.37055354321745
STARLINK-1566,46079,53.1608,0.0001347,15.31708004,469.79359530464444,471.63867633943573,1 46079U 20055BE  26147.25218645  .00006072  00000+0  20721-3 0  9990,2 46079  53.1608  95.7330 0001347  80.9460 279.1693 15.31708004321271
STARLINK-1568,46080,53.0604,0.0004055,15.53034768,405.1196131174747,410.6230658808081,1 46080U 20055BF  26147.94284443  .00052923  00000+0  83461-3 0  9993,2 46080  53.0604  12.8824 0004055  59.6430 300.4980 15.53034768322489
STARLINK-1578,46082,53.16,0.000172,15.31699154,469.56450983184277,471.92052438572864,1 46082U 20055BH  26147.84381089 -.00001129  00000+0 -24623-4 0  9998,2 46082  53.1600  93.4933 0001720  95.0634 265.0564 15.31699154321351
STARLINK-1579,46083,53.1609,0.0001119,15.31695413,469.98727800223696,471.5200597339308,1 46083U 20055BJ  26147.24286051 -.00000281  00000+0  27102-5 0  9999,2 46083  53.1609  95.8294 0001119  78.1587 281.9539 15.31695413321261
STARLINK-1622,46128,53.0162,0.000709,15.80445098,324.42553748824776,333.9365144490712,1 46128U 20057M   26148.00002315  .00165653  00000+0  84193-3 0  9990,2 46128  53.0162 190.6863 0007090  24.3095  80.6888 15.80445098  6011
STARLINK-1623,46129,53.0438,0.0005032,15.72054026,349.64025937403676,356.4145032073684,1 46129U 20057N   26147.62937089  .00109828  00000+0  81492-3 0  9994,2 46129  53.0438 229.9585 0005032 356.1645   3.9333 15.72054026319261
STARLINK-1596,46141,53.0356,0.0006708,15.57278912,390.99241334101225,400.0799732971691,1 46141U 20057AA  26147.41730365  .00098399  00000+0  13142-2 0  9999,2 46141  53.0356 212.2591 0006708 352.0941   7.9963 15.57278912319494
STARLINK-1597,46142,53.0447,0.0002636,15.71750726,352.1187300123629,355.6678563829364,1 46142U 20057AB  26147.60439816  .00113002  00000+0  84920-3 0  9990,2 46142  53.0447 269.8102 0002636  12.7124 347.3959 15.71750726318692
STARLINK-1606,46144,53.0365,0.0007807,15.85239406,310.4248723872497,320.8765525214749,1 46144U 20057AD  26148.00002315  .00283582  00000+0  11331-2 0  9993,2 46144  53.0365 222.0446 0007807 337.5198 341.3391 15.85239406  6004
STARLINK-1608,46146,53.1583,0.0002267,15.34776337,460.0343509451859,463.1354808618571,1 46146U 20057AF  26147.72116089  .00048340  00000+0  14156-2 0  9996,2 46146  53.1583 301.2969 0002267 295.4202  64.6565 15.34776337318290
STARLINK-1667,46155,53.0125,0.0008563,15.84589268,311.748049771556,323.2149660281848,1 46155U 20057AQ  26148.00002315  .00304707  00000+0  12523-2 0  9992,2 46155  53.0125 190.2786 0008563  23.4886 269.9755 15.84589268  6011
STARLINK-1545,46156,53.0391,0.0005988,15.79206446,328.66938636215673,336.70627017649076,1 46156U 20057AR  26148.00002315  .00157424  00000+0  84790-3 0  9991,2 46156  53.0391 226.0662 0005988 321.1046 182.0318 15.79206446  5996
STARLINK-1595,46159,53.0433,0.0002865,15.69860557,357.3656738093059,361.22622288871025,1 46159U 20057AU  26147.55791654  .00108058  00000+0  87950-3 0  9994,2 46159  53.0433 272.6242 0002865 355.9496   4.1497 15.69860557319912
STARLINK-1598,46160,53.0446,0.0002084,15.69791341,358.0898713653951,360.89811596355503,1 46160U 20057AV  26147.59486323  .00112723  00000+0  91944-3 0  9996,2 46160  53.0446 258.5839 0002084 163.8751 196.2332 15.69791341320104
STARLINK-1626,46167,53.0416,0.0001909,15.6987138,357.97881215566576,360.55115223246776,1 46167U 20057BC  26147.58833315  .00098057  00000+0  79921-3 0  9993,2 46167  53.0416 268.1269 0001909 348.2127  11.8844 15.69871380318720
